ESEO                    
1 43792U 18099AL  26068.65529582  .00002831  00000+0  20935-3 0  9991
2 43792  97.4113 110.2601 0011063 317.6000  42.4371 15.03914518396849
STARLINK-30357          
1 57750U 23131U   26068.32974647  .00000504  00000+0  52368-4 0  9994
2 57750  43.0008 173.4323 0001190 269.2159  90.8547 15.02532723139870
